NORAD_CAT_ID,OBJECT_NAME,OBJECT_TYPE,EPOCH,MEAN_MOTION,ECCENTRICITY,INCLINATION,RA_OF_ASC_NODE,ARG_OF_PERICENTER,MEAN_ANOMALY,BSTAR,MEAN_MOTION_DOT,MEAN_MOTION_DDOT,TLE_LINE0,TLE_LINE1,TLE_LINE2,SEMIMAJOR_AXIS,PERIOD,APOGEE,PERIGEE,DECAYED
51852.0,STARLINK-3542,PAYLOAD,2022-03-07 20:00:01,15.81509683,0.000112,53.2174,123.3742,75.5017,96.1659,-0.0047937,-0.00881354,0.0,0 STARLINK-3542,1 51852U 22022A   22066.83334491 -.00881354  00000-0 -47937-2 0  9993,2 51852  53.2174 123.3742 0001120  75.5017  96.1659 15.81509683  1931,6704.308000000001,91.052,326.9240000000001,325.422,0.0
51852.0,STARLINK-3542,PAYLOAD,2022-03-08 14:00:01,15.80086752,0.000107,53.2173,119.6223,71.7965,50.49,-0.0050431,-0.00869087,0.0,0 STARLINK-3542,1 51852U 22022A   22067.58334491 -.00869087  00000-0 -50431-2 0  9998,2 51852  53.2173 119.6223 0001070  71.7965  50.4900 15.80086752  1428,6708.331999999999,91.134,330.915,329.4790000000001,0.0
51852.0,STARLINK-3542,PAYLOAD,2022-03-08 20:00:01,15.79620728,0.0001144,53.2174,118.3713,59.5738,45.4,-0.005214,-0.00878495,0.0,0 STARLINK-3542,1 51852U 22022A   22067.83334491 -.00878495  00000-0 -52140-2 0  9998,2 51852  53.2174 118.3713 0001144  59.5738  45.4000 15.79620728  2086,6709.651,91.161,332.284,330.749,0.0
51852.0,STARLINK-3542,PAYLOAD,2022-03-08 22:00:00,15.79461688,0.0001146,53.2176,117.9545,68.0156,151.094,-0.0052332,-0.00875615,0.0,0 STARLINK-3542,1 51852U 22022A   22067.91667824 -.00875615  00000-0 -52332-2 0  9990,2 51852  53.2176 117.9545 0001146  68.0156 151.0940 15.79461688  1474,6710.102,91.17,332.736,331.1980000000001,0.0
51852.0,STARLINK-3542,PAYLOAD,2022-03-09 14:00:01,15.78200822,0.0001025,53.2173,114.6298,65.3702,345.1171,-0.0055128,-0.00871271,0.0,0 STARLINK-3542,1 51852U 22022A   22068.58334491 -.00871271  00000-0 -55128-2 0  9995,2 51852  53.2173 114.6298 0001025  65.3702 345.1171 15.78200822  1587,6713.675,91.243,336.228,334.852,0.0
51852.0,STARLINK-3542,PAYLOAD,2022-03-09 22:00:01,15.7757214,0.0001259,53.2173,112.9667,52.8236,92.2853,-0.0056768,-0.00872065,0.0,0 STARLINK-3542,1 51852U 22022A   22068.91668981 -.00872065  00000-0 -56768-2 0  9999,2 51852  53.2173 112.9667 0001259  52.8236  92.2853 15.77572140  2256,6715.459,91.28,338.1690000000001,336.478,0.0
51852.0,STARLINK-3542,PAYLOAD,2022-03-10 14:00:01,15.76313773,9.74e-05,53.2173,109.6515,74.7589,257.124,-0.0060023,-0.00871518,0.0,0 STARLINK-3542,1 51852U 22022A   22069.58334491 -.00871518  00000-0 -60023-2 0  9990,2 51852  53.2173 109.6515 0000974  74.7589 257.1240 15.76313773  1747,6719.031999999997,91.352,341.552,340.24300000000005,0.0
51852.0,STARLINK-3542,PAYLOAD,2022-03-10 20:00:01,15.75845266,0.0001095999999999,53.2176,108.4072,62.5903,248.5778,-0.0061772,-0.00877818,0.0,0 STARLINK-3542,1 51852U 22022A   22069.83334491 -.00877818  00000-0 -61772-2 0  9999,2 51852  53.2176 108.4072 0001096  62.5903 248.5778 15.75845266  2406,6720.364000000001,91.38,342.966,341.492,0.0
51852.0,STARLINK-3542,PAYLOAD,2022-03-10 22:00:01,15.75684286,0.0001107999999999,53.2175,107.9928,53.7159,10.5201,-0.0061743,-0.00871816,0.0,0 STARLINK-3542,1 51852U 22022A   22069.91668981 -.00871816  00000-0 -61743-2 0  9992,2 51852  53.2175 107.9928 0001108  53.7159  10.5201 15.75684286  1790,6720.821999999999,91.389,343.431,341.94199999999995,0.0
51852.0,STARLINK-3542,PAYLOAD,2022-03-11 12:00:00,15.74581951,0.0001196,53.2176,105.1,65.3697,68.4809,-0.0064629999999999,-0.00869633,0.0,0 STARLINK-3542,1 51852U 22022A   22070.50001157 -.00869633  00000-0 -64630-2 0  9997,2 51852  53.2176 105.1000 0001196  65.3697  68.4809 15.74581951  1885,6723.958000000001,91.453,346.62699999999984,345.019,0.0
51852.0,STARLINK-3542,PAYLOAD,2022-03-11 20:00:01,15.73929435,0.0001349,53.2175,103.446,55.125,168.9375,-0.0061986,-0.00815998,0.0,0 STARLINK-3542,1 51852U 22022A   22070.83334491 -.00815998  00000-0 -61986-2 0  9999,2 51852  53.2175 103.4460 0001349  55.1250 168.9375 15.73929435  2569,6725.816,91.491,348.589,346.774,0.0
51852.0,STARLINK-3542,PAYLOAD,2022-03-11 22:00:00,15.73702362,0.0001178,53.2173,103.0328,59.0777,277.4322,-0.0047927,-0.00638187,0.0,0 STARLINK-3542,1 51852U 22022A   22070.91667824 -.00638187  00000-0 -47927-2 0  9999,2 51852  53.2173 103.0328 0001178  59.0777 277.4322 15.73702362  1951,6726.4630000000025,91.504,349.121,347.536,0.0
51852.0,STARLINK-3542,PAYLOAD,2022-03-12 06:00:00,15.73205071,0.0001385,53.2174,101.3838,45.5695,20.1866,-1.2738e-05,-2.408e-05,0.0,0 STARLINK-3542,1 51852U 22022A   22071.25001157 -.00002408  00000-0 -12738-4 0  9993,2 51852  53.2174 101.3838 0001385  45.5695  20.1866 15.73205071  2624,6727.880999999999,91.533,350.67800000000005,348.814,0.0
51852.0,STARLINK-3542,PAYLOAD,2022-03-12 14:00:01,15.73425115,0.0001403,53.2176,99.7387,58.5324,96.2559,-0.0039135,-0.00522129,0.0,0 STARLINK-3542,1 51852U 22022A   22071.58334491 -.00522129  00000-0 -39135-2 0  9994,2 51852  53.2176  99.7387 0001403  58.5324  96.2559 15.73425115  2670,6727.253000000002,91.52,350.06199999999984,348.175,0.0
51852.0,STARLINK-3542,PAYLOAD,2022-03-12 20:00:01,15.73242458,0.000121,53.2184,98.502,57.1119,74.4469,-0.00015926,-0.0002295,0.0,0 STARLINK-3542,1 51852U 22022A   22071.83334491 -.00022950  00000-0 -15926-3 0  9992,2 51852  53.2184  98.5020 0001210  57.1119  74.4469 15.73242458  2713,6727.774,91.531,350.45300000000015,348.825,0.0
51852.0,STARLINK-3542,PAYLOAD,2022-03-12 22:00:00,15.73236867,0.0001182,53.2183,98.0892,59.0493,184.7549,-0.0001381,-0.00019986,0.0,0 STARLINK-3542,1 51852U 22022A   22071.91667824 -.00019986  00000-0 -13810-3 0  9995,2 51852  53.2183  98.0892 0001182  59.0493 184.7549 15.73236867  2102,6727.79,91.531,350.45,348.86,0.0
51852.0,STARLINK-3542,PAYLOAD,2022-03-13 14:00:01,15.73145834,0.0001428,53.2176,94.7922,50.1308,11.5382,-0.00035905,-0.00050592,0.0,0 STARLINK-3542,1 51852U 22022A   22072.58334491 -.00050592  00000-0 -35905-3 0  9997,2 51852  53.2176  94.7922 0001428  50.1308  11.5382 15.73145834  2836,6728.05,91.536,350.875,348.954,0.0
51852.0,STARLINK-3542,PAYLOAD,2022-03-13 22:00:01,15.73040167,0.0001183,53.2176,93.141,62.216,88.3612,0.0013679,0.0019453,0.0,0 STARLINK-3542,1 51852U 22022A   22072.91668981  .00194530  00000-0  13679-2 0  9990,2 51852  53.2176  93.1410 0001183  62.2160  88.3612 15.73040167  2267,6728.351,91.542,351.01199999999994,349.42,0.0
51852.0,STARLINK-3542,PAYLOAD,2022-03-14 04:00:00,15.73201882,0.0001211,53.218,91.9049,60.7544,66.3761,0.00029275,0.00040668,0.0,0 STARLINK-3542,1 51852U 22022A   22073.16667824  .00040668  00000-0  29275-3 0  9995,2 51852  53.2180  91.9049 0001211  60.7544  66.3761 15.73201882  2924,6727.89,91.533,350.57,348.94,0.0
51852.0,STARLINK-3542,PAYLOAD,2022-03-14 14:00:01,15.73274433,0.0001295,53.2178,89.8441,49.852,278.5715,0.0006652,0.00094088,0.0,0 STARLINK-3542,1 51852U 22022A   22073.58335648  .00094088  00000-0  66520-3 0  9996,2 51852  53.2178  89.8441 0001295  49.8520 278.5715 15.73274433  2374,6727.683000000001,91.529,350.4190000000001,348.677,0.0
51852.0,STARLINK-3542,PAYLOAD,2022-03-14 20:00:01,15.73305484,0.0001164,53.2181,88.6053,57.6322,247.4894,0.00016768,0.00023083,0.0,0 STARLINK-3542,1 51852U 22022A   22073.83334491  .00023083  00000-0  16768-3 0  9995,2 51852  53.2181  88.6053 0001164  57.6322 247.4894 15.73305484  3034,6727.594,91.527,350.24300000000005,348.676,0.0
51852.0,STARLINK-3542,PAYLOAD,2022-03-15 02:00:01,15.73372988,0.0001195,53.2183,87.3679,61.3303,220.5779,-0.0011408,-0.00158906,0.0,0 STARLINK-3542,1 51852U 22022A   22074.08334491 -.00158906  00000-0 -11408-2 0  9993,2 51852  53.2183  87.3679 0001195  61.3303 220.5779 15.73372988  3072,6727.401999999999,91.523,350.071,348.463,0.0
51852.0,STARLINK-3542,PAYLOAD,2022-03-15 22:00:00,15.73007352,0.0001107,53.2174,83.2437,59.9504,264.2965,0.0015006,0.00213654,0.0,0 STARLINK-3542,1 51852U 22022A   22074.91667824  .00213654  00000-0  15006-2 0  9992,2 51852  53.2174  83.2437 0001107  59.9504 264.2965 15.73007352  3205,6728.444,91.544,351.05400000000014,349.565,0.0
51852.0,STARLINK-3542,PAYLOAD,2022-03-16 04:00:00,15.7315105,0.0001095,53.2177,82.008,55.542,245.2644,0.0001264,0.00017119,0.0,0 STARLINK-3542,1 51852U 22022A   22075.16667824  .00017119  00000-0  12640-3 0  9990,2 51852  53.2177  82.0080 0001095  55.5420 245.2644 15.73151050  3246,6728.035,91.536,350.636,349.163,0.0
51852.0,STARLINK-3542,PAYLOAD,2022-03-16 12:00:00,15.73157482,0.0001222,53.2175,80.3598,46.2723,343.416,0.00066057,0.00092948,0.0,0 STARLINK-3542,1 51852U 22022A   22075.50001157  .00092948  00000-0  66057-3 0  9993,2 51852  53.2175  80.3598 0001222  46.2723 343.4160 15.73157482  3298,6728.016,91.536,350.704,349.059,0.0
51852.0,STARLINK-3542,PAYLOAD,2022-03-16 14:00:01,15.73194768,0.000119,53.2176,79.9469,48.2428,93.6622,0.0002646,0.00036668,0.0,0 STARLINK-3542,1 51852U 22022A   22075.58334491  .00036668  00000-0  26460-3 0  9992,2 51852  53.2176  79.9469 0001190  48.2428  93.6622 15.73194768  2696,6727.91,91.533,350.576,348.974,0.0
51852.0,STARLINK-3542,PAYLOAD,2022-03-16 20:00:01,15.73178273,0.000105,53.2179,78.7082,55.7839,62.8126,0.00060391,0.00084915,0.0,0 STARLINK-3542,1 51852U 22022A   22075.83334491  .00084915  00000-0  60391-3 0  9999,2 51852  53.2179  78.7082 0001050  55.7839  62.8126 15.73178273  3344,6727.956999999999,91.534,350.529,349.116,0.0
51852.0,STARLINK-3542,PAYLOAD,2022-03-17 14:00:01,15.73222031,0.000112,53.2174,74.9978,44.0768,4.69,0.00017407,0.00023902,0.0,0 STARLINK-3542,1 51852U 22022A   22076.58334491  .00023902  00000-0  17407-3 0  9991,2 51852  53.2174  74.9978 0001120  44.0768   4.6900 15.73222031  3460,6727.831999999999,91.532,350.451,348.944,0.0
51852.0,STARLINK-3542,PAYLOAD,2022-03-17 22:00:00,15.7325555,9.940000000000004e-05,53.2176,73.3466,59.3061,78.4232,-0.00010056,-0.00014741,0.0,0 STARLINK-3542,1 51852U 22022A   22076.91667824 -.00014741  00000-0 -10056-3 0  9993,2 51852  53.2176  73.3466 0000994  59.3061  78.4232 15.73255550  2907,6727.736999999999,91.53,350.271,348.93300000000005,0.0
